{
    "features": [
        {
            "geometry": {
                "coordinates": [
                    [
                        [
                            -74.06583429656544,
                            4.628774411601611
                        ],
                        [
                            -74.06595250141534,
                            4.628208878628669
                        ],
                        [
                            -74.066058885781,
                            4.627592290081665
                        ],
                        [
                            -74.06548362217649,
                            4.627486252506088
                        ],
                        [
                            -74.06519599037458,
                            4.62861731915487
                        ],
                        [
                            -74.06583429656544,
                            4.628774411601611
                        ]
                    ]
                ],
                "type": "Polygon"
            },
            "properties": {},
            "type": "Feature"
        }
    ],
    "type": "FeatureCollection"
}